ONEWEB-0529             
1 54145U 22138AJ  26178.05395066 -.00000028  00000+0 -10238-3 0  9991
2 54145  87.9178 303.0088 0001816 106.3797 253.7535 13.19724773178125
ONEWEB-0531             
1 54146U 22138AK  26178.00565541  .00000101  00000+0  21685-3 0  9992
2 54146  87.9197 272.4787 0002886  95.9700 264.1763 13.20772176180604
ONEWEB-0535             
1 54147U 22138AL  26178.08711179 -.00000091  00000+0 -26065-3 0  9998
2 54147  87.9187 302.9869 0002122  92.8289 267.3086 13.19725210178149
ONEWEB-0536             
1 54148U 22138AM  26178.21945434  .00000049  00000+0  89067-4 0  9990
2 54148  87.9183 272.4575 0003051  97.8200 262.3279 13.20771955180625
ONEWEB-0527             
1 54642U 22166A   26178.16856937 -.00000033  00000+0 -11106-3 0  9996
2 54642  87.9247 242.0113 0002045  99.8685 260.2680 13.21824113172852
ONEWEB-0528             
1 54643U 22166B   26178.16940279  .00000052  00000+0  93484-4 0  9999
2 54643  87.9248 242.0136 0001995 104.5745 255.5610 13.21825006172866
ONEWEB-0539             
1 54644U 22166C   26178.20724750  .00000065  00000+0  12598-3 0  9999
2 54644  87.9257 241.9783 0001889  93.0230 267.1120 13.21827695172867
ONEWEB-0540             
1 54645U 22166D   26178.21410853  .00000103  00000+0  21668-3 0  9998
2 54645  87.9247 242.0065 0002019  94.8491 265.2873 13.21828079172856
ONEWEB-0542             
1 54646U 22166E   26178.21734671  .00000059  00000+0  11176-3 0  9999
2 54646  87.9256 241.9751 0001895  90.9337 269.2014 13.21824779172869
ONEWEB-0545             
1 54647U 22166F   26178.18201543  .00000012  00000+0 -16636-5 0  9991
2 54647  87.9248 241.9931 0001895  82.6794 277.4555 13.21828981172822
ONEWEB-0580             
1 54648U 22166G   26178.15676152  .00000089  00000+0  18279-3 0  9997
2 54648  87.9246 241.9979 0002089  86.5630 273.5743 13.21827893172862
ONEWEB-0582             
1 54649U 22166H   26178.19883947  .00000021  00000+0  18821-4 0  9994
2 54649  87.9248 241.9821 0001954  85.2433 274.8924 13.21827301172845
ONEWEB-0583             
1 54650U 22166J   26178.21061932  .00000088  00000+0  18131-3 0  9997
2 54650  87.9243 242.0028 0002031  94.7806 265.3560 13.21825067172858
ONEWEB-0584             
1 54651U 22166K   26178.23078419 -.00003838  00000+0 -93245-2 0  9994
2 54651  87.9241 241.9843 0002087  93.9538 266.1835 13.21860958172845
ONEWEB-0585             
1 54652U 22166L   26178.17865591 -.00000003  00000+0 -39786-4 0  9996
2 54652  87.9249 241.9822 0002084 102.5506 257.5861 13.21827682172840
ONEWEB-0586             
1 54653U 22166M   26178.19211713  .00000086  00000+0  17674-3 0  9990
2 54653  87.9247 242.0048 0001944  94.0228 266.1128 13.21825298172844
ONEWEB-0587             
1 54654U 22166N   26178.20221067  .00000082  00000+0  16733-3 0  9997
2 54654  87.9260 241.9774 0002237 106.3300 253.8080 13.21825172173008
ONEWEB-0589             
1 54655U 22166P   26178.18875299  .00000086  00000+0  17673-3 0  9995
2 54655  87.9245 241.9910 0002062  73.4106 286.7254 13.21825625172862
ONEWEB-0590             
1 54656U 22166Q   26178.21383413  .00000024  00000+0  26269-4 0  9996
2 54656  87.9254 241.9772 0002497  94.0556 266.0863 13.21827866172854
ONEWEB-0591             
1 54657U 22166R   26178.22576028  .00000052  00000+0  95397-4 0  9993
2 54657  87.9247 241.9886 0002112  96.5736 263.5639 13.21826742172882
ONEWEB-0592             
1 54658U 22166S   26178.22910147 -.00000041  00000+0 -13000-3 0  9998
2 54658  87.9255 241.9669 0002061  97.7170 262.4198 13.21828290172764
ONEWEB-0593             
1 54659U 22166T   26178.17528988  .00000071  00000+0  14046-3 0  9993
2 54659  87.9247 241.9886 0001908  96.4060 263.7291 13.21825109172865
ONEWEB-0594             
1 54660U 22166U   26178.19546758  .00000096  00000+0  20108-3 0  9995
2 54660  87.9246 242.0008 0002003 102.6118 257.5240 13.21828333172884
ONEWEB-0595             
1 54661U 22166V   26178.17192539  .00000068  00000+0  13421-3 0  9997
2 54661  87.9256 241.9870 0002219 102.9770 257.1612 13.21825195172856
ONEWEB-0596             
1 54662U 22166W   26178.22238867 -.00000010  00000+0 -54946-4 0  9996
2 54662  87.9248 241.9878 0002139  99.7981 260.3394 13.21826378172862
ONEWEB-0597             
1 54663U 22166X   26178.20388475  .00000078  00000+0  15851-3 0  9999
2 54663  87.9247 241.9943 0001998  94.6927 265.4435 13.21827834172861
ONEWEB-0600             
1 54664U 22166Y   26178.18538865 -.00000026  00000+0 -95096-4 0  9992
2 54664  87.9247 241.9894 0001819  98.4425 261.6915 13.21824980172831
ONEWEB-0601             
1 54665U 22166Z   26178.17695530  .00000657  00000+0  15601-2 0  9995
2 54665  87.9246 242.0073 0001991  90.8541 269.2821 13.21822465173026
ONEWEB-0602             
1 54666U 22166AA  26178.21817897  .00000041  00000+0  67145-4 0  9992
2 54666  87.9245 242.0049 0001783  98.9513 261.1822 13.21827437172874
ONEWEB-0603             
1 54667U 22166AB  26178.22407396  .00000105  00000+0  22315-3 0  9993
2 54667  87.9255 241.9617 0001976  95.9284 264.2075 13.21827076172807
ONEWEB-0604             
1 54668U 22166AC  26178.21227657  .00000020  00000+0  16483-4 0  9999
2 54668  87.9256 241.9798 0002072 100.3083 259.8284 13.21828337172763
